{
  "governorates": [
    {
      "code": "C",
      "name_ar": "القاهرة",
      "name_en": "Cairo",
      "districts": ["المعادي", "حلوان", "مدينة نصر", "مصر الجديدة", "شبرا", "عين شمس", "التجمع", "الزمالك", "جاردن سيتي", "وسط البلد", "العباسية", "الزيتون", "روض الفرج", "بولاق", "الوايلي", "السيدة زينب", "مصر القديمة", "المقطم", "طرة", "15 مايو"]
    },
    {
      "code": "G",
      "name_ar": "الجيزة",
      "name_en": "Giza",
      "districts": ["الدقي", "العجوزة", "الهرم", "6 أكتوبر", "الشيخ زايد", "إمبابة", "بولاق الدكرور", "الوراق", "أوسيم", "كرداسة", "البدرشين", "الصف", "أطفيح", "الواحات البحرية", "الفيوم", "بني سويف", "المنيا", "أسيوط", "سوهاج", "قنا"]
    },
    {
      "code": "ALX",
      "name_ar": "الإسكندرية",
      "name_en": "Alexandria",
      "districts": ["سيدي جابر", "محرم بك", "العجمي", "المنتزه", "المعمورة", "بحري", "وسط", "جليم", "سموحة", "سابا باشا", "ستانلي", "سيدي بشر", "ميامي", "المندرة", "رأس التين", "الأنفوشي", "العطارين", "كرموز", "محرم بك", "المنتزه"]
    },
    {
      "code": "ASW",
      "name_ar": "أسوان",
      "name_en": "Aswan",
      "districts": ["أسوان", "كوم أمبو", "دراو", "إدفو", "نصر النوبة", "كلابشة", "أبو سمبل", "وادي العلاقي", "الرديسية", "البصيلية"]
    },
    {
      "code": "ASU",
      "name_ar": "أسيوط",
      "name_en": "Assiut",
      "districts": ["أسيوط", "ديروط", "منفلوط", "القوصية", "أبنوب", "أبو تيج", "الغنايم", "ساحل سليم", "البداري", "صدفا", "الفتح", "المنشأة", "المراغة", "ساحل سليم"]
    },
    {
      "code": "BNS",
      "name_ar": "بني سويف",
      "name_en": "Beni Suef",
      "districts": ["بني سويف", "الواسطي", "ناصر", "إهناسيا", "ببا", "سمسطا", "الفيوم", "طامية", "سنورس", "إطسا"]
    },
    {
      "code": "POR",
      "name_ar": "بورسعيد",
      "name_en": "Port Said",
      "districts": ["بورسعيد", "الضواحي", "العرب", "المناخ", "الزهور", "الشرق", "الحي الثامن", "الحي السابع", "الحي السادس", "الحي الخامس"]
    },
    {
      "code": "DAM",
      "name_ar": "دمياط",
      "name_en": "Damietta",
      "districts": ["دمياط", "فارسكور", "الزرقا", "كفر البطيخ", "رأس البر", "الروضة", "السرو", "الرهاوي", "الزرقا", "كفر سعد"]
    },
    {
      "code": "SHG",
      "name_ar": "سوهاج",
      "name_en": "Sohag",
      "districts": ["سوهاج", "أخميم", "البلينا", "المراغة", "المنشأة", "دار السلام", "جرجا", "طهطا", "ساقلته", "طما", "جهينة", "الغنايم"]
    },
    {
      "code": "SUZ",
      "name_ar": "السويس",
      "name_en": "Suez",
      "districts": ["السويس", "الأربعين", "فايد", "العتاقة", "الجناين", "القطاع", "المنشية", "الخمسين", "السبعين", "الحي العاشر"]
    },
    {
      "code": "SHM",
      "name_ar": "الشرقية",
      "name_en": "Sharqia",
      "districts": ["الزقازيق", "العاشر من رمضان", "بلبيس", "أبو حماد", "ههيا", "أبو كبير", "فاقوس", "القرين", "كفر صقر", "الإبراهيمية", "ديرب نجم", "كفر شكر", "أولاد صقر", "الحسينية", "منيا القمح", "مشتول السوق", "البلينا"]
    },
    {
      "code": "GHB",
      "name_ar": "الغربية",
      "name_en": "Gharbia",
      "districts": ["طنطا", "المحلة الكبرى", "كفر الزيات", "زفتى", "السنطة", "قطور", "بسيون", "سمنود", "شبين الكوم", "المنوفية", "أشمون", "الباجور", "قويسنا", "بركة السبع", "تلا", "الشهداء", "منوف", "سرس الليان", "أشمون"]
    },
    {
      "code": "FAY",
      "name_ar": "الفيوم",
      "name_en": "Fayoum",
      "districts": ["الفيوم", "طامية", "سنورس", "إطسا", "يوسف الصديق", "إبشواي", "الجامعة", "الواسطي", "ناصر", "إهناسيا"]
    },
    {
      "code": "QAL",
      "name_ar": "القليوبية",
      "name_en": "Qalyubia",
      "districts": ["بنها", "شبين القناطر", "القناطر الخيرية", "الخانكة", "كفر شكر", "أبو زعبل", "الخصوص", "شبرا الخيمة", "العبور", "الرحاب", "مدينة السلام", "المرج", "المعادي", "الزمالك"]
    },
    {
      "code": "QEN",
      "name_ar": "قنا",
      "name_en": "Qena",
      "districts": ["قنا", "قوص", "نقادة", "دشنا", "الوقف", "قفط", "أبو تشت", "فرشوط", "نجع حمادي", "دندرة", "الرزيقات", "الوقف"]
    },
    {
      "code": "KAF",
      "name_ar": "كفر الشيخ",
      "name_en": "Kafr El Sheikh",
      "districts": ["كفر الشيخ", "دسوق", "فوه", "مطوبس", "البرلس", "سيدي سالم", "قلين", "الحامول", "الرياض", "سيدي غازي", "البرج", "المراغة"]
    },
    {
      "code": "MTN",
      "name_ar": "مطروح",
      "name_en": "Matruh",
      "districts": ["مرسى مطروح", "الحمام", "العلمين", "الضبعة", "النجيلة", "سيدي براني", "السلوم", "سيوة", "الوادي الجديد", "الخارجة", "الداخلة", "باريس", "الفرافرة"]
    },
    {
      "code": "MNF",
      "name_ar": "المنوفية",
      "name_en": "Menoufia",
      "districts": ["شبين الكوم", "أشمون", "الباجور", "قويسنا", "بركة السبع", "تلا", "الشهداء", "منوف", "سرس الليان", "أشمون", "الباجور", "قويسنا"]
    },
    {
      "code": "MIN",
      "name_ar": "المنيا",
      "name_en": "Minya",
      "districts": ["المنيا", "العدوة", "مغاغة", "بني مزار", "مطاي", "سمالوط", "ملوي", "دير مواس", "أبو قرقاص", "مطاي", "العدوة", "مغاغة"]
    },
    {
      "code": "WAD",
      "name_ar": "الوادي الجديد",
      "name_en": "New Valley",
      "districts": ["الخارجة", "الداخلة", "باريس", "الفرافرة", "الواحات البحرية", "الواحات الداخلة", "الواحات الخارجة", "الواحات الفرافرة"]
    },
    {
      "code": "NSR",
      "name_ar": "شمال سيناء",
      "name_en": "North Sinai",
      "districts": ["العريش", "الشيخ زويد", "رفح", "بئر العبد", "الحسنة", "نخل", "الطور", "سانت كاترين", "أبو رديس", "أبو زنيمة", "رأس سدر", "شرم الشيخ", "دهب", "نويبع", "طابا"]
    },
    {
      "code": "JNS",
      "name_ar": "جنوب سيناء",
      "name_en": "South Sinai",
      "districts": ["الطور", "سانت كاترين", "أبو رديس", "أبو زنيمة", "رأس سدر", "شرم الشيخ", "دهب", "نويبع", "طابا", "نخل", "الحسنة"]
    },
    {
      "code": "ISL",
      "name_ar": "الإسماعيلية",
      "name_en": "Ismailia",
      "districts": ["الإسماعيلية", "فايد", "القنطرة شرق", "القنطرة غرب", "التل الكبير", "أبو صوير", "القصاصين", "التل الكبير", "فايد", "القنطرة"]
    },
    {
      "code": "LUX",
      "name_ar": "الأقصر",
      "name_en": "Luxor",
      "districts": ["الأقصر", "إسنا", "أرمنت", "الطود", "بياضة العرب", "الزينية", "البياضية", "القرنة", "الكرنك", "الطود", "إسنا", "أرمنت"]
    },
    {
      "code": "RED",
      "name_ar": "البحر الأحمر",
      "name_en": "Red Sea",
      "districts": ["الغردقة", "رأس غارب", "سفاجا", "القصير", "مرسى علم", "شلاتين", "حلايب", "أبو رماد", "الدهار", "الشلاتين"]
    },
    {
      "code": "BEH",
      "name_ar": "البحيرة",
      "name_en": "Beheira",
      "districts": ["دمنهور", "رشيد", "إدكو", "أبو المطامير", "أبو حمص", "الدلنجات", "المحمودية", "الرحمانية", "إيتاي البارود", "حوش عيسى", "شبراخيت", "كوم حمادة", "بدر", "وادي النطرون", "النوبارية", "البيوم", "السلوم"]
    },
    {
      "code": "DAK",
      "name_ar": "الدقهلية",
      "name_en": "Dakahlia",
      "districts": ["المنصورة", "طلخا", "ميت غمر", "دكرنس", "أجا", "منية النصر", "السنبلاوين", "المنزلة", "الجمالية", "شربين", "المطرية", "بلقاس", "ميت سلسيل", "جمصة", "محلة دمنة", "نبروه", "السنبلاوين", "المنزلة"]
    }
  ]
} 